{
  "type": "FeatureCollection",
  "features": [
    {
      "type": "Feature",
      "properties": {
        "norad_id": 37781,
        "name": "HAIYANG-2A",
        "group": "resource",
        "lat": 50.40413681619659,
        "lon": -16.17794852918878,
        "alt_km": 962.1787762195909,
        "timestamp": "2025-12-20T11:30:28.027926+00:00",
        "meta_object_name": "HAIYANG-2A",
        "meta_object_id": "2011-043A",
        "meta_epoch": "2025-12-20T04:17:36.961728",
        "meta_mean_motion": 13.78836711,
        "meta_eccentricity": 0.0001656,
        "meta_inclination": 99.3371,
        "meta_ra_of_asc_node": 354.9989,
        "meta_arg_of_pericenter": 73.6723,
        "meta_mean_anomaly": 286.4611,
        "meta_ephemeris_type": 0,
        "meta_classification_type": "U",
        "meta_norad_cat_id": 37781,
        "meta_element_set_no": 999,
        "meta_rev_at_epoch": 72201,
        "meta_bstar": 0.00028575,
        "meta_mean_motion_dot": 2.47e-06,
        "meta_mean_motion_ddot": 0,
        "tle_line1": "1 37781U 11043A   25354.17890002  .00000247  00000+0  28575-3 0  9993",
        "tle_line2": "2 37781  99.3371 354.9989 0001656  73.6723 286.4611 13.78836711722018"
      },
      "geometry": {
        "type": "Point",
        "coordinates": [
          -16.17794852918878,
          50.40413681619659
        ]
      }
    },
    {
      "type": "Feature",
      "properties": {
        "norad_id": 37791,
        "name": "RASAT",
        "group": "resource",
        "lat": 52.9035691376807,
        "lon": -85.56988067858185,
        "alt_km": 661.3027619416998,
        "timestamp": "2025-12-20T11:30:28.027936+00:00",
        "meta_object_name": "RASAT",
        "meta_object_id": "2011-044D",
        "meta_epoch": "2025-12-20T06:07:41.426112",
        "meta_mean_motion": 14.67919556,
        "meta_eccentricity": 0.002154,
        "meta_inclination": 98.0652,
        "meta_ra_of_asc_node": 83.4017,
        "meta_arg_of_pericenter": 42.3794,
        "meta_mean_anomaly": 339.826,
        "meta_ephemeris_type": 0,
        "meta_classification_type": "U",
        "meta_norad_cat_id": 37791,
        "meta_element_set_no": 999,
        "meta_rev_at_epoch": 76693,
        "meta_bstar": 9.3291e-05,
        "meta_mean_motion_dot": 4.86e-06,
        "meta_mean_motion_ddot": 0,
        "tle_line1": "1 37791U 11044D   25354.25534058  .00000486  00000+0  93291-4 0  9993",
        "tle_line2": "2 37791  98.0652  83.4017 0021540  42.3794 339.8260 14.67919556766938"
      },
      "geometry": {
        "type": "Point",
        "coordinates": [
          -85.56988067858185,
          52.9035691376807
        ]
      }
    },
    {
      "type": "Feature",
      "properties": {
        "norad_id": 37841,
        "name": "SRMSAT",
        "group": "resource",
        "lat": -18.538322543413297,
        "lon": -51.47351156540615,
        "alt_km": 861.4009222247141,
        "timestamp": "2025-12-20T11:30:28.027946+00:00",
        "meta_object_name": "SRMSAT",
        "meta_object_id": "2011-058D",
        "meta_epoch": "2025-12-19T14:40:57.595008",
        "meta_mean_motion": 14.11513672,
        "meta_eccentricity": 0.0011928,
        "meta_inclination": 19.9723,
        "meta_ra_of_asc_node": 66.3596,
        "meta_arg_of_pericenter": 29.0252,
        "meta_mean_anomaly": 120.8933,
        "meta_ephemeris_type": 0,
        "meta_classification_type": "U",
        "meta_norad_cat_id": 37841,
        "meta_element_set_no": 999,
        "meta_rev_at_epoch": 73241,
        "meta_bstar": 6.4258e-05,
        "meta_mean_motion_dot": 3.83e-06,
        "meta_mean_motion_ddot": 0,
        "tle_line1": "1 37841U 11058D   25353.61177772  .00000383  00000+0  64258-4 0  9996",
        "tle_line2": "2 37841  19.9723  66.3596 0011928  29.0252 120.8933 14.11513672732416"
      },
      "geometry": {
        "type": "Point",
        "coordinates": [
          -51.47351156540615,
          -18.538322543413297
        ]
      }
    },
    {
      "type": "Feature",
      "properties": {
        "norad_id": 38012,
        "name": "PLEIADES 1A",
        "group": "resource",
        "lat": 20.727629863044896,
        "lon": 64.00771887778444,
        "alt_km": 697.271847947407,
        "timestamp": "2025-12-20T11:30:28.027956+00:00",
        "meta_object_name": "PLEIADES 1A",
        "meta_object_id": "2011-076F",
        "meta_epoch": "2025-12-20T04:55:50.962080",
        "meta_mean_motion": 14.58567927,
        "meta_eccentricity": 0.0001142,
        "meta_inclination": 98.1823,
        "meta_ra_of_asc_node": 66.8591,
        "meta_arg_of_pericenter": 75.8272,
        "meta_mean_anomaly": 307.1531,
        "meta_ephemeris_type": 0,
        "meta_classification_type": "U",
        "meta_norad_cat_id": 38012,
        "meta_element_set_no": 999,
        "meta_rev_at_epoch": 74590,
        "meta_bstar": 7.9501e-05,
        "meta_mean_motion_dot": 3.24e-06,
        "meta_mean_motion_ddot": 0,
        "tle_line1": "1 38012U 11076F   25354.20545095  .00000324  00000+0  79501-4 0  9992",
        "tle_line2": "2 38012  98.1823  66.8591 0001142  75.8272 307.1531 14.58567927745900"
      },
      "geometry": {
        "type": "Point",
        "coordinates": [
          64.00771887778444,
          20.727629863044896
        ]
      }
    },
    {
      "type": "Feature",
      "properties": {
        "norad_id": 38038,
        "name": "ZIYUAN 1-02C (ZY 1-02C)",
        "group": "resource",
        "lat": 74.69049147609329,
        "lon": 27.535339191768056,
        "alt_km": 753.9050876757747,
        "timestamp": "2025-12-20T11:30:28.027966+00:00",
        "meta_object_name": "ZIYUAN 1-02C (ZY 1-02C)",
        "meta_object_id": "2011-079A",
        "meta_epoch": "2025-12-20T04:54:04.739328",
        "meta_mean_motion": 14.38019719,
        "meta_eccentricity": 0.0007435,
        "meta_inclination": 98.4331,
        "meta_ra_of_asc_node": 60.0807,
        "meta_arg_of_pericenter": 119.0109,
        "meta_mean_anomaly": 334.0362,
        "meta_ephemeris_type": 0,
        "meta_classification_type": "U",
        "meta_norad_cat_id": 38038,
        "meta_element_set_no": 999,
        "meta_rev_at_epoch": 73348,
        "meta_bstar": 0.0001086,
        "meta_mean_motion_dot": 2.85e-06,
        "meta_mean_motion_ddot": 0,
        "tle_line1": "1 38038U 11079A   25354.20422152  .00000285  00000+0  10860-3 0  9999",
        "tle_line2": "2 38038  98.4331  60.0807 0007435 119.0109 334.0362 14.38019719733482"
      },
      "geometry": {
        "type": "Point",
        "coordinates": [
          27.535339191768056,
          74.69049147609329
        ]
      }
    },
    {
      "type": "Feature",
      "properties": {
        "norad_id": 38338,
        "name": "ARIRANG-3 (KOMPSAT-3)",
        "group": "resource",
        "lat": 6.171406087112038,
        "lon": -51.78067157981216,
        "alt_km": 687.7411057438721,
        "timestamp": "2025-12-20T11:30:28.027977+00:00",
        "meta_object_name": "ARIRANG-3 (KOMPSAT-3)",
        "meta_object_id": "2012-025B",
        "meta_epoch": "2025-12-20T03:15:53.964864",
        "meta_mean_motion": 14.61721587,
        "meta_eccentricity": 0.0004906,
        "meta_inclination": 98.3333,
        "meta_ra_of_asc_node": 308.7814,
        "meta_arg_of_pericenter": 313.0694,
        "meta_mean_anomaly": 47.0095,
        "meta_ephemeris_type": 0,
        "meta_classification_type": "U",
        "meta_norad_cat_id": 38338,
        "meta_element_set_no": 999,
        "meta_rev_at_epoch": 72518,
        "meta_bstar": 8.5915e-05,
        "meta_mean_motion_dot": 3.8e-06,
        "meta_mean_motion_ddot": 0,
        "tle_line1": "1 38338U 12025B   25354.13604126  .00000380  00000+0  85915-4 0  9999",
        "tle_line2": "2 38338  98.3333 308.7814 0004906 313.0694  47.0095 14.61721587725182"
      },
      "geometry": {
        "type": "Point",
        "coordinates": [
          -51.78067157981216,
          6.171406087112038
        ]
      }
    },
    {
      "type": "Feature",
      "properties": {
        "norad_id": 38709,
        "name": "EXACTVIEW-1 (ADS-1B)",
        "group": "resource",
        "lat": 59.168937981811844,
        "lon": 87.69737481271255,
        "alt_km": 802.8960049153447,
        "timestamp": "2025-12-20T11:30:28.027987+00:00",
        "meta_object_name": "EXACTVIEW-1 (ADS-1B)",
        "meta_object_id": "2012-039C",
        "meta_epoch": "2025-12-19T21:44:37.095360",
        "meta_mean_motion": 14.24910684,
        "meta_eccentricity": 0.0010313,
        "meta_inclination": 98.9639,
        "meta_ra_of_asc_node": 102.4464,
        "meta_arg_of_pericenter": 333.0281,
        "meta_mean_anomaly": 27.036,
        "meta_ephemeris_type": 0,
        "meta_classification_type": "U",
        "meta_norad_cat_id": 38709,
        "meta_element_set_no": 999,
        "meta_rev_at_epoch": 69717,
        "meta_bstar": 6.0667e-05,
        "meta_mean_motion_dot": 9.5e-07,
        "meta_mean_motion_ddot": 0,
        "tle_line1": "1 38709U 12039C   25353.90598490  .00000095  00000+0  60667-4 0  9996",
        "tle_line2": "2 38709  98.9639 102.4464 0010313 333.0281  27.0360 14.24910684697179"
      },
      "geometry": {
        "type": "Point",
        "coordinates": [
          87.69737481271255,
          59.168937981811844
        ]
      }
    }
  ]
}